start=new Date('2022-03-13T00:00:00.000Z').valueOf();
sats=[{"ARG_OF_PERICENTER":"64.0340","OBJECT_ID":"2021-036AJ","REF_FRAME":"TEME","ELEMENT_SET_NO":"999","PERIOD":"95.591","OBJECT_NAME":"STARLINK-2532","SEMIMAJOR_AXIS":"6925.306","FILE":"3356931","MEAN_MOTION_DOT":"0.00001647","SITE":"AFETR","REV_AT_EPOCH":"4840","BSTAR":"0.00012937000000","APOAPSIS":"548.151","MEAN_MOTION_DDOT":"0.0000000000000","NORAD_CAT_ID":"48308","EPOCH":"2022-03-12T14:16:30.824544","ECCENTRICITY":"0.00014150","CENTER_NAME":"EARTH","LAUNCH_DATE":"2021-04-29","RA_OF_ASC_NODE":"157.2650","RCS_SIZE":"LARGE","TLE_LINE2":"2 48308  53.0530 157.2650 0001415  64.0340 296.0795 15.06413924 48404","CLASSIFICATION_TYPE":"U","PERIAPSIS":"546.191","TLE_LINE1":"1 48308U 21036AJ  22071.59480121  .00001647  00000-0  12937-3 0  9990","OBJECT_TYPE":"PAYLOAD","INCLINATION":"53.0530","COUNTRY_CODE":"US","DECAY_DATE":null,"TIME_SYSTEM":"UTC","EPHEMERIS_TYPE":"0","MEAN_ELEMENT_THEORY":"SGP4","GP_ID":"198605244","MEAN_ANOMALY":"296.0795","MEAN_MOTION":"15.06413924"},{"PERIAPSIS":"546.182","CLASSIFICATION_TYPE":"U","TLE_LINE2":"2 48309  53.0541 157.2844 0001454  71.5631 288.5516 15.06407921 48408","RCS_SIZE":"LARGE","RA_OF_ASC_NODE":"157.2844","LAUNCH_DATE":"2021-04-29","TIME_SYSTEM":"UTC","DECAY_DATE":null,"COUNTRY_CODE":"US","INCLINATION":"53.0541","OBJECT_TYPE":"PAYLOAD","TLE_LINE1":"1 48309U 21036AK  22071.59111441 -.00000077  00000-0  13745-4 0  9993","GP_ID":"198603992","MEAN_ELEMENT_THEORY":"SGP4","EPHEMERIS_TYPE":"0","MEAN_MOTION":"15.06407921","MEAN_ANOMALY":"288.5516","PERIOD":"95.592","ELEMENT_SET_NO":"999","REF_FRAME":"TEME","OBJECT_ID":"2021-036AK","ARG_OF_PERICENTER":"71.5631","MEAN_MOTION_DOT":"-0.00000077","FILE":"3356931","SEMIMAJOR_AXIS":"6925.324","OBJECT_NAME":"STARLINK-2517","MEAN_MOTION_DDOT":"0.0000000000000","APOAPSIS":"548.196","BSTAR":"0.00001374500000","REV_AT_EPOCH":"4840","SITE":"AFETR","ECCENTRICITY":"0.00014540","CENTER_NAME":"EARTH","EPOCH":"2022-03-12T14:11:12.285024","NORAD_CAT_ID":"48309"},{"LAUNCH_DATE":"2021-04-29","RA_OF_ASC_NODE":"155.7984","RCS_SIZE":"LARGE","TLE_LINE2":"2 48310  53.0539 155.7984 0001417  79.3163 280.7985 15.06400341 48458","CLASSIFICATION_TYPE":"U","PERIAPSIS":"546.231","TLE_LINE1":"1 48310U 21036AL  22071.91915701 -.00000925  00000-0 -43222-4 0  9998","OBJECT_TYPE":"PAYLOAD","INCLINATION":"53.0539","COUNTRY_CODE":"US","DECAY_DATE":null,"TIME_SYSTEM":"UTC","EPHEMERIS_TYPE":"0","MEAN_ELEMENT_THEORY":"SGP4","GP_ID":"198604242","MEAN_ANOMALY":"280.7985","MEAN_MOTION":"15.06400341","ARG_OF_PERICENTER":"79.3163","OBJECT_ID":"2021-036AL","ELEMENT_SET_NO":"999","REF_FRAME":"TEME","PERIOD":"95.592","OBJECT_NAME":"STARLINK-2536","FILE":"3356931","SEMIMAJOR_AXIS":"6925.348","MEAN_MOTION_DOT":"-0.00000925","SITE":"AFETR","REV_AT_EPOCH":"4845","BSTAR":"-0.00004322200000","APOAPSIS":"548.194","MEAN_MOTION_DDOT":"0.0000000000000","NORAD_CAT_ID":"48310","EPOCH":"2022-03-12T22:03:35.165664","ECCENTRICITY":"0.00014170","CENTER_NAME":"EARTH"},{"ARG_OF_PERICENTER":"70.6732","OBJECT_ID":"2021-036AM","ELEMENT_SET_NO":"999","REF_FRAME":"TEME","PERIOD":"95.591","OBJECT_NAME":"STARLINK-2534","FILE":"3356931","SEMIMAJOR_AXIS":"6925.284","MEAN_MOTION_DOT":"0.00000549","REV_AT_EPOCH":"4841","SITE":"AFETR","BSTAR":"0.00005569800000","APOAPSIS":"548.158","MEAN_MOTION_DDOT":"0.0000000000000","EPOCH":"2022-03-12T15:36:07.286976","NORAD_CAT_ID":"48311","ECCENTRICITY":"0.00014580","CENTER_NAME":"EARTH","LAUNCH_DATE":"2021-04-29","RCS_SIZE":"LARGE","RA_OF_ASC_NODE":"157.0188","CLASSIFICATION_TYPE":"U","TLE_LINE2":"2 48311  53.0525 157.0188 0001458  70.6732 289.4415 15.06421202 48415","PERIAPSIS":"546.139","TLE_LINE1":"1 48311U 21036AM  22071.65008434  .00000549  00000-0  55698-4 0  9996","INCLINATION":"53.0525","COUNTRY_CODE":"US","OBJECT_TYPE":"PAYLOAD","DECAY_DATE":null,"TIME_SYSTEM":"UTC","EPHEMERIS_TYPE":"0","MEAN_ELEMENT_THEORY":"SGP4","GP_ID":"198604994","MEAN_MOTION":"15.06421202","MEAN_ANOMALY":"289.4415"},{"MEAN_ELEMENT_THEORY":"SGP4","GP_ID":"198605745","EPHEMERIS_TYPE":"0","MEAN_MOTION":"15.06404392","MEAN_ANOMALY":"305.6942","RCS_SIZE":"LARGE","RA_OF_ASC_NODE":"157.0322","LAUNCH_DATE":"2021-04-29","PERIAPSIS":"546.208","CLASSIFICATION_TYPE":"U","TLE_LINE2":"2 48312  53.0533 157.0322 0001433  54.4180 305.6942 15.06404392 48412","INCLINATION":"53.0533","COUNTRY_CODE":"US","OBJECT_TYPE":"PAYLOAD","TLE_LINE1":"1 48312U 21036AN  22071.64641014  .00003912  00000-0  28131-3 0  9991","TIME_SYSTEM":"UTC","DECAY_DATE":null,"BSTAR":"0.00028131000000","REV_AT_EPOCH":"4841","SITE":"AFETR","MEAN_MOTION_DDOT":"0.0000000000000","APOAPSIS":"548.192","EPOCH":"2022-03-12T15:30:49.836096","NORAD_CAT_ID":"48312","CENTER_NAME":"EARTH","ECCENTRICITY":"0.00014330","ARG_OF_PERICENTER":"54.4180","OBJECT_ID":"2021-036AN","PERIOD":"95.592","ELEMENT_SET_NO":"999","REF_FRAME":"TEME","FILE":"3356931","SEMIMAJOR_AXIS":"6925.335","OBJECT_NAME":"STARLINK-2061","MEAN_MOTION_DOT":"0.00003912"},{"GP_ID":"198604493","MEAN_ELEMENT_THEORY":"SGP4","EPHEMERIS_TYPE":"0","MEAN_ANOMALY":"302.8542","MEAN_MOTION":"15.06412248","RA_OF_ASC_NODE":"157.0400","RCS_SIZE":"LARGE","LAUNCH_DATE":"2021-04-29","PERIAPSIS":"546.102","TLE_LINE2":"2 48313  53.0520 157.0400 0001551  57.2596 302.8542 15.06412248 48402","CLASSIFICATION_TYPE":"U","OBJECT_TYPE":"PAYLOAD","COUNTRY_CODE":"US","INCLINATION":"53.0520","TLE_LINE1":"1 48313U 21036AP  22071.64271025 -.00002146  00000-0 -12519-3 0  9996","TIME_SYSTEM":"UTC","DECAY_DATE":null,"BSTAR":"-0.00012519000000","SITE":"AFETR","REV_AT_EPOCH":"4840","MEAN_MOTION_DDOT":"0.0000000000000","APOAPSIS":"548.250","NORAD_CAT_ID":"48313","EPOCH":"2022-03-12T15:25:30.165600","CENTER_NAME":"EARTH","ECCENTRICITY":"0.00015510","ARG_OF_PERICENTER":"57.2596","OBJECT_ID":"2021-036AP","PERIOD":"95.591","ELEMENT_SET_NO":"999","REF_FRAME":"TEME","FILE":"3356931","SEMIMAJOR_AXIS":"6925.311","OBJECT_NAME":"STARLINK-2541","MEAN_MOTION_DOT":"-0.00002146"},{"PERIOD":"95.591","REF_FRAME":"TEME","ELEMENT_SET_NO":"999","ARG_OF_PERICENTER":"72.3106","OBJECT_ID":"2021-036AQ","MEAN_MOTION_DOT":"-0.00001714","FILE":"3356520","SEMIMAJOR_AXIS":"6925.287","OBJECT_NAME":"STARLINK-2549","MEAN_MOTION_DDOT":"0.0000000000000","APOAPSIS":"548.111","BSTAR":"-0.00009612800000","SITE":"AFETR","REV_AT_EPOCH":"4838","ECCENTRICITY":"0.00013850","CENTER_NAME":"EARTH","NORAD_CAT_ID":"48314","EPOCH":"2022-03-12T12:09:07.329312","PERIAPSIS":"546.192","TLE_LINE2":"2 48314  53.0528 157.6652 0001385  72.3106 287.8035 15.06420245 48388","CLASSIFICATION_TYPE":"U","RA_OF_ASC_NODE":"157.6652","RCS_SIZE":"LARGE","LAUNCH_DATE":"2021-04-29","TIME_SYSTEM":"UTC","DECAY_DATE":null,"OBJECT_TYPE":"PAYLOAD","COUNTRY_CODE":"US","INCLINATION":"53.0528","TLE_LINE1":"1 48314U 21036AQ  22071.50633483 -.00001714  00000-0 -96128-4 0  9991","MEAN_ELEMENT_THEORY":"SGP4","GP_ID":"198570399","EPHEMERIS_TYPE":"0","MEAN_ANOMALY":"287.8035","MEAN_MOTION":"15.06420245"},{"MEAN_ELEMENT_THEORY":"SGP4","GP_ID":"198575804","EPHEMERIS_TYPE":"0","MEAN_MOTION":"15.06404619","MEAN_ANOMALY":"295.9501","PERIAPSIS":"546.259","CLASSIFICATION_TYPE":"U","TLE_LINE2":"2 48315  53.0533 157.6808 0001358  64.1627 295.9501 15.06404619 49033","RCS_SIZE":"LARGE","RA_OF_ASC_NODE":"157.6808","LAUNCH_DATE":"2021-04-29","TIME_SYSTEM":"UTC","DECAY_DATE":null,"INCLINATION":"53.0533","COUNTRY_CODE":"US","OBJECT_TYPE":"PAYLOAD","TLE_LINE1":"1 48315U 21036AR  22071.50265661 -.00001180  00000-0 -60337-4 0  9991","MEAN_MOTION_DDOT":"0.0000000000000","APOAPSIS":"548.140","BSTAR":"-0.00006033700000","REV_AT_EPOCH":"4903","SITE":"AFETR","ECCENTRICITY":"0.00013580","CENTER_NAME":"EARTH","EPOCH":"2022-03-12T12:03:49.531104","NORAD_CAT_ID":"48315","PERIOD":"95.592","ELEMENT_SET_NO":"999","REF_FRAME":"TEME","ARG_OF_PERICENTER":"64.1627","OBJECT_ID":"2021-036AR","MEAN_MOTION_DOT":"-0.00001180","FILE":"3356618","SEMIMAJOR_AXIS":"6925.334","OBJECT_NAME":"STARLINK-2506"},{"FILE":"3356931","SEMIMAJOR_AXIS":"6925.334","OBJECT_NAME":"STARLINK-2507","MEAN_MOTION_DOT":"0.00005208","ARG_OF_PERICENTER":"61.1726","OBJECT_ID":"2021-036AS","PERIOD":"95.592","ELEMENT_SET_NO":"999","REF_FRAME":"TEME","NORAD_CAT_ID":"48316","EPOCH":"2022-03-12T15:09:36.772704","ECCENTRICITY":"0.00013390","CENTER_NAME":"EARTH","BSTAR":"0.00036822000000","SITE":"AFETR","REV_AT_EPOCH":"4840","MEAN_MOTION_DDOT":"0.0000000000000","APOAPSIS":"548.126","OBJECT_TYPE":"PAYLOAD","INCLINATION":"53.0520","COUNTRY_CODE":"US","TLE_LINE1":"1 48316U 21036AS  22071.63167561  .00005208  00000-0  36822-3 0  9990","TIME_SYSTEM":"UTC","DECAY_DATE":null,"RA_OF_ASC_NODE":"157.1032","RCS_SIZE":"LARGE","LAUNCH_DATE":"2021-04-29","PERIAPSIS":"546.272","TLE_LINE2":"2 48316  53.0520 157.1032 0001339  61.1726 298.9398 15.06404769 48403","CLASSIFICATION_TYPE":"U","MEAN_ANOMALY":"298.9398","MEAN_MOTION":"15.06404769","MEAN_ELEMENT_THEORY":"SGP4","GP_ID":"198605245","EPHEMERIS_TYPE":"0"},{"CENTER_NAME":"EARTH","ECCENTRICITY":"0.00015960","NORAD_CAT_ID":"48317","EPOCH":"2022-03-12T15:04:16.317696","APOAPSIS":"548.241","MEAN_MOTION_DDOT":"0.0000000000000","SITE":"AFETR","REV_AT_EPOCH":"4840","BSTAR":"0.00026623000000","MEAN_MOTION_DOT":"0.00003689","OBJECT_NAME":"STARLINK-2513","FILE":"3356931","SEMIMAJOR_AXIS":"6925.271","ELEMENT_SET_NO":"999","REF_FRAME":"TEME","PERIOD":"95.591","ARG_OF_PERICENTER":"72.9682","OBJECT_ID":"2021-036AT","MEAN_ANOMALY":"287.1482","MEAN_MOTION":"15.06425347","EPHEMERIS_TYPE":"0","MEAN_ELEMENT_THEORY":"SGP4","GP_ID":"198603993","DECAY_DATE":null,"TIME_SYSTEM":"UTC","TLE_LINE1":"1 48317U 21036AT  22071.62796664  .00003689  00000-0  26623-3 0  9991","OBJECT_TYPE":"PAYLOAD","COUNTRY_CODE":"US","INCLINATION":"53.0536","TLE_LINE2":"2 48317  53.0536 157.1221 0001596  72.9682 287.1482 15.06425347 48406","CLASSIFICATION_TYPE":"U","PERIAPSIS":"546.031","LAUNCH_DATE":"2021-04-29","RA_OF_ASC_NODE":"157.1221","RCS_SIZE":"LARGE"}];
